[
    {
        "Altitude(m)": 610405.343529153,
        "Argument of Periapsis(deg)": 0.0,
        "Eccentricity": 0.0,
        "Inclination(deg)": 60.0,
        "Latitude(deg)": 52.111328122866354,
        "Longitude(deg)": 62.477351398145956,
        "Mean Anomaly(deg)": 114.5455,
        "RAAN(deg)": 30.0,
        "Satellite Name": "Test1 139",
        "Satellite Number": 139,
        "Semi-Major Axis(m)": 6980739.136638005,
        "Time(s)": 0
    },
    {
        "Altitude(m)": 610321.9168237326,
        "Argument of Periapsis(deg)": 0.00010418945913296404,
        "Eccentricity": 0.0,
        "Inclination(deg)": 60.0,
        "Latitude(deg)": 51.7460437963125,
        "Longitude(deg)": 63.24624705696267,
        "Mean Anomaly(deg)": 115.16560614546184,
        "RAAN(deg)": 29.99957995086026,
        "Satellite Name": "Test1 139",
        "Satellite Number": 139,
        "Semi-Major Axis(m)": 6980739.136638005,
        "Time(s)": 10
    }
]